{
  "type": "FeatureCollection",
  "features": [
    {
      "type": "Feature",
      "properties": {
        "norad_id": 34833,
        "name": "IRIDIUM 33 DEB",
        "group": "iridium-33-debris",
        "lat": -6.345267648620324,
        "lon": 44.14755885615735,
        "alt_km": 713.6973061759909,
        "timestamp": "2025-12-27T16:33:30.607328+00:00",
        "meta_object_name": "IRIDIUM 33 DEB",
        "meta_object_id": "1997-051MH",
        "meta_epoch": "2025-12-27T03:36:29.185920",
        "meta_mean_motion": 14.52459738,
        "meta_eccentricity": 0.00210883,
        "meta_inclination": 86.3923,
        "meta_ra_of_asc_node": 44.7821,
        "meta_arg_of_pericenter": 54.3467,
        "meta_mean_anomaly": 359.944,
        "meta_ephemeris_type": 0,
        "meta_classification_type": "U",
        "meta_norad_cat_id": 34833,
        "meta_element_set_no": 999,
        "meta_rev_at_epoch": 87924,
        "meta_bstar": 0.00081313888,
        "meta_mean_motion_dot": 3.345e-05,
        "meta_mean_motion_ddot": 0,
        "tle_line1": "1 34833U 97051MH  25361.15033780  .00003345  00000+0  81314-3 0  9991",
        "tle_line2": "2 34833  86.3923  44.7821 0021088  54.3467 359.9440 14.52459738879240"
      },
      "geometry": {
        "type": "Point",
        "coordinates": [
          44.14755885615735,
          -6.345267648620324
        ]
      }
    },
    {
      "type": "Feature",
      "properties": {
        "norad_id": 34870,
        "name": "IRIDIUM 33 DEB",
        "group": "iridium-33-debris",
        "lat": -4.276507124719743,
        "lon": 127.51237295959442,
        "alt_km": 635.5677420006477,
        "timestamp": "2025-12-27T16:33:30.607339+00:00",
        "meta_object_name": "IRIDIUM 33 DEB",
        "meta_object_id": "1997-051MQ",
        "meta_epoch": "2025-12-27T02:46:31.066176",
        "meta_mean_motion": 14.76712058,
        "meta_eccentricity": 0.00184241,
        "meta_inclination": 86.3107,
        "meta_ra_of_asc_node": 307.499,
        "meta_arg_of_pericenter": 132.9493,
        "meta_mean_anomaly": 239.9601,
        "meta_ephemeris_type": 0,
        "meta_classification_type": "U",
        "meta_norad_cat_id": 34870,
        "meta_element_set_no": 999,
        "meta_rev_at_epoch": 89123,
        "meta_bstar": 0.0017741165,
        "meta_mean_motion_dot": 0.00012485,
        "meta_mean_motion_ddot": 0,
        "tle_line1": "1 34870U 97051MQ  25361.11563734  .00012485  00000+0  17741-2 0  9992",
        "tle_line2": "2 34870  86.3107 307.4990 0018424 132.9493 239.9601 14.76712058891235"
      },
      "geometry": {
        "type": "Point",
        "coordinates": [
          127.51237295959442,
          -4.276507124719743
        ]
      }
    },
    {
      "type": "Feature",
      "properties": {
        "norad_id": 34896,
        "name": "IRIDIUM 33 DEB",
        "group": "iridium-33-debris",
        "lat": -15.888728625900873,
        "lon": 141.02680440218992,
        "alt_km": 662.4267544296636,
        "timestamp": "2025-12-27T16:33:30.607349+00:00",
        "meta_object_name": "IRIDIUM 33 DEB",
        "meta_object_id": "1997-051MY",
        "meta_epoch": "2025-12-24T04:12:44.288640",
        "meta_mean_motion": 14.66381715,
        "meta_eccentricity": 0.00257287,
        "meta_inclination": 86.3299,
        "meta_ra_of_asc_node": 321.5555,
        "meta_arg_of_pericenter": 173.6101,
        "meta_mean_anomaly": 201.3064,
        "meta_ephemeris_type": 0,
        "meta_classification_type": "U",
        "meta_norad_cat_id": 34896,
        "meta_element_set_no": 999,
        "meta_rev_at_epoch": 87787,
        "meta_bstar": 0.00093038371,
        "meta_mean_motion_dot": 5.188e-05,
        "meta_mean_motion_ddot": 0,
        "tle_line1": "1 34896U 97051MY  25358.17551260  .00005188  00000+0  93038-3 0  9999",
        "tle_line2": "2 34896  86.3299 321.5555 0025728 173.6101 201.3064 14.66381715877873"
      },
      "geometry": {
        "type": "Point",
        "coordinates": [
          141.02680440218992,
          -15.888728625900873
        ]
      }
    },
    {
      "type": "Feature",
      "properties": {
        "norad_id": 34926,
        "name": "IRIDIUM 33 DEB",
        "group": "iridium-33-debris",
        "lat": 19.4963672404637,
        "lon": 2.7090396161530714,
        "alt_km": 748.641696178749,
        "timestamp": "2025-12-27T16:33:30.607367+00:00",
        "meta_object_name": "IRIDIUM 33 DEB",
        "meta_object_id": "1997-051NF",
        "meta_epoch": "2025-12-27T12:06:07.885152",
        "meta_mean_motion": 14.55106374,
        "meta_eccentricity": 0.0074142,
        "meta_inclination": 86.1316,
        "meta_ra_of_asc_node": 1.4225,
        "meta_arg_of_pericenter": 241.393,
        "meta_mean_anomaly": 245.6587,
        "meta_ephemeris_type": 0,
        "meta_classification_type": "U",
        "meta_norad_cat_id": 34926,
        "meta_element_set_no": 999,
        "meta_rev_at_epoch": 86671,
        "meta_bstar": 0.0059184,
        "meta_mean_motion_dot": 0.00026593,
        "meta_mean_motion_ddot": 0,
        "tle_line1": "1 34926U 97051NF  25361.50425793  .00026593  00000+0  59184-2 0  9991",
        "tle_line2": "2 34926  86.1316   1.4225 0074142 241.3930 245.6587 14.55106374866716"
      },
      "geometry": {
        "type": "Point",
        "coordinates": [
          2.7090396161530714,
          19.4963672404637
        ]
      }
    },
    {
      "type": "Feature",
      "properties": {
        "norad_id": 34985,
        "name": "IRIDIUM 33 DEB",
        "group": "iridium-33-debris",
        "lat": -1.0883881912129634,
        "lon": -129.43002970056142,
        "alt_km": 739.2925795044739,
        "timestamp": "2025-12-27T16:33:30.607387+00:00",
        "meta_object_name": "IRIDIUM 33 DEB",
        "meta_object_id": "1997-051NR",
        "meta_epoch": "2025-12-26T21:58:10.172064",
        "meta_mean_motion": 14.42068347,
        "meta_eccentricity": 0.0022221,
        "meta_inclination": 86.3683,
        "meta_ra_of_asc_node": 50.8313,
        "meta_arg_of_pericenter": 172.8188,
        "meta_mean_anomaly": 309.665,
        "meta_ephemeris_type": 0,
        "meta_classification_type": "U",
        "meta_norad_cat_id": 34985,
        "meta_element_set_no": 999,
        "meta_rev_at_epoch": 87379,
        "meta_bstar": 0.00068645,
        "meta_mean_motion_dot": 2.28e-05,
        "meta_mean_motion_ddot": 0,
        "tle_line1": "1 34985U 97051NR  25360.91539551  .00002280  00000+0  68645-3 0  9998",
        "tle_line2": "2 34985  86.3683  50.8313 0022221 172.8188 309.6650 14.42068347873791"
      },
      "geometry": {
        "type": "Point",
        "coordinates": [
          -129.43002970056142,
          -1.0883881912129634
        ]
      }
    },
    {
      "type": "Feature",
      "properties": {
        "norad_id": 35051,
        "name": "IRIDIUM 33 DEB",
        "group": "iridium-33-debris",
        "lat": 53.854793163310035,
        "lon": 7.395715430960683,
        "alt_km": 721.0369738108957,
        "timestamp": "2025-12-27T16:33:30.607399+00:00",
        "meta_object_name": "IRIDIUM 33 DEB",
        "meta_object_id": "1997-051NX",
        "meta_epoch": "2025-12-22T18:31:37.744896",
        "meta_mean_motion": 14.47639956,
        "meta_eccentricity": 0.0010302,
        "meta_inclination": 86.324,
        "meta_ra_of_asc_node": 4.4893,
        "meta_arg_of_pericenter": 63.2582,
        "meta_mean_anomaly": 296.9674,
        "meta_ephemeris_type": 0,
        "meta_classification_type": "U",
        "meta_norad_cat_id": 35051,
        "meta_element_set_no": 999,
        "meta_rev_at_epoch": 87141,
        "meta_bstar": 0.00060447572,
        "meta_mean_motion_dot": 2.248e-05,
        "meta_mean_motion_ddot": 0,
        "tle_line1": "1 35051U 97051NX  25356.77196464  .00002248  00000+0  60448-3 0  9991",
        "tle_line2": "2 35051  86.3240   4.4893 0010302  63.2582 296.9674 14.47639956871417"
      },
      "geometry": {
        "type": "Point",
        "coordinates": [
          7.395715430960683,
          53.854793163310035
        ]
      }
    },
    {
      "type": "Feature",
      "properties": {
        "norad_id": 35052,
        "name": "IRIDIUM 33 DEB",
        "group": "iridium-33-debris",
        "lat": 72.27898588331342,
        "lon": 25.65255434120605,
        "alt_km": 748.5611342206212,
        "timestamp": "2025-12-27T16:33:30.607410+00:00",
        "meta_object_name": "IRIDIUM 33 DEB",
        "meta_object_id": "1997-051NY",
        "meta_epoch": "2025-12-26T00:09:21.492000",
        "meta_mean_motion": 14.38507246,
        "meta_eccentricity": 0.00130035,
        "meta_inclination": 86.3301,
        "meta_ra_of_asc_node": 14.7874,
        "meta_arg_of_pericenter": 47.6773,
        "meta_mean_anomaly": 312.5525,
        "meta_ephemeris_type": 0,
        "meta_classification_type": "U",
        "meta_norad_cat_id": 35052,
        "meta_element_set_no": 999,
        "meta_rev_at_epoch": 87466,
        "meta_bstar": 0.00018800221,
        "meta_mean_motion_dot": 5.94e-06,
        "meta_mean_motion_ddot": 0,
        "tle_line1": "1 35052U 97051NY  25360.00649875  .00000594  00000+0  18800-3 0  9999",
        "tle_line2": "2 35052  86.3301  14.7874 0013003  47.6773 312.5525 14.38507246874664"
      },
      "geometry": {
        "type": "Point",
        "coordinates": [
          25.65255434120605,
          72.27898588331342
        ]
      }
    }
  ]
}